NORAD_CAT_ID,OBJECT_NAME,OBJECT_TYPE,EPOCH,MEAN_MOTION,ECCENTRICITY,INCLINATION,RA_OF_ASC_NODE,ARG_OF_PERICENTER,MEAN_ANOMALY,BSTAR,MEAN_MOTION_DOT,MEAN_MOTION_DDOT,TLE_LINE0,TLE_LINE1,TLE_LINE2,SEMIMAJOR_AXIS,PERIOD,APOGEE,PERIGEE,DECAYED
52840.0,STARLINK-4049,PAYLOAD,2022-08-28 14:00:01,15.08843765,0.0001537,53.22,61.1344,67.4449,319.222,-0.0007525,-0.00012245,0.0,0 STARLINK-4049,1 52840U 22062L   22240.58334491 -.00012245  00000-0 -75250-3 0  9996,2 52840  53.2200  61.1344 0001537  67.4449 319.2220 15.08843765  1302,6917.869000000002,95.437,540.797,538.6709999999998,0.0
52840.0,STARLINK-4049,PAYLOAD,2022-08-28 22:00:00,15.08815136,0.0001647,53.2201,59.6396,59.7022,338.5648,0.0027523,0.00043757,0.0,0 STARLINK-4049,1 52840U 22062L   22240.91667824  .00043757  00000-0  27523-2 0  9991,2 52840  53.2201  59.6396 0001647  59.7022 338.5648 15.08815136  1304,6917.956,95.439,540.961,538.682,0.0
52840.0,STARLINK-4049,PAYLOAD,2022-08-29 14:00:01,15.08843104,0.0001646,53.2206,56.6455,68.6581,352.7841,-0.0020875,-0.0003336,0.0,0 STARLINK-4049,1 52840U 22062L   22241.58334491 -.00033360  00000-0 -20875-2 0  9990,2 52840  53.2206  56.6455 0001646  68.6581 352.7841 15.08843104  1309,6917.871,95.437,540.875,538.597,0.0
52840.0,STARLINK-4049,PAYLOAD,2022-08-29 16:00:00,15.08833752,0.0001699,53.2205,56.2719,66.5672,87.7753,-0.0016160999999999,-0.00025912,0.0,0 STARLINK-4049,1 52840U 22062L   22241.66667824 -.00025912  00000-0 -16161-2 0  9995,2 52840  53.2205  56.2719 0001699  66.5672  87.7753 15.08833752 11837,6917.899,95.438,540.94,538.589,0.0
52840.0,STARLINK-4049,PAYLOAD,2022-08-29 22:00:00,15.08800356,0.0001742,53.2206,55.1507,61.6908,11.3408,0.0029045,0.0004618999999999,0.0,0 STARLINK-4049,1 52840U 22062L   22241.91667824  .00046190  00000-0  29045-2 0  9997,2 52840  53.2206  55.1507 0001742  61.6908  11.3408 15.08800356  1303,6918.002,95.44,541.072,538.661,0.0
52840.0,STARLINK-4049,PAYLOAD,2022-08-30 06:00:00,15.08823419,0.0001604,53.2208,53.6527,67.8133,16.7932,0.00081034,0.00012626,0.0,0 STARLINK-4049,1 52840U 22062L   22242.25001157  .00012626  00000-0  81034-3 0  9990,2 52840  53.2208  53.6527 0001604  67.8133  16.7932 15.08823419 11919,6917.931,95.439,540.906,538.686,0.0
52840.0,STARLINK-4049,PAYLOAD,2022-08-30 14:00:01,15.08848614,0.0001651,53.221,52.1568,69.6625,26.5123,-0.0014267,-0.00022928,0.0,0 STARLINK-4049,1 52840U 22062L   22242.58334491 -.00022928  00000-0 -14267-2 0  9997,2 52840  53.2210  52.1568 0001651  69.6625  26.5123 15.08848614  1306,6917.854,95.437,540.861,538.577,0.0
52840.0,STARLINK-4049,PAYLOAD,2022-08-30 22:00:00,15.08814751,0.0001706,53.2208,50.6619,62.178,45.5995,0.0030488,0.00048534,0.0,0 STARLINK-4049,1 52840U 22062L   22242.91667824  .00048534  00000-0  30488-2 0  9995,2 52840  53.2208  50.6619 0001706  62.1780  45.5995 15.08814751  1307,6917.958000000001,95.439,541.003,538.6419999999998,0.0
52840.0,STARLINK-4049,PAYLOAD,2022-08-31 14:00:01,15.08864364,0.0001623,53.2211,47.6683,70.5972,60.3598,-0.0015720999999999,-0.00025238,0.0,0 STARLINK-4049,1 52840U 22062L   22243.58334491 -.00025238  00000-0 -15721-2 0  9991,2 52840  53.2211  47.6683 0001623  70.5972  60.3598 15.08864364 12123,6917.806,95.436,540.794,538.548,0.0
52840.0,STARLINK-4049,PAYLOAD,2022-08-31 22:00:00,15.08829577,0.0001664,53.2207,46.1733,62.9343,79.6407,0.0029701,0.00047285,0.0,0 STARLINK-4049,1 52840U 22062L   22243.91667824  .00047285  00000-0  29701-2 0  9994,2 52840  53.2207  46.1733 0001664  62.9343  79.6407 15.08829577  1307,6917.9119999999975,95.438,540.928,538.626,0.0
52840.0,STARLINK-4049,PAYLOAD,2022-09-01 06:00:00,15.08853394,0.0001492,53.2208,44.6755,70.5561,83.626,-0.0013284,-0.00021375,0.0,0 STARLINK-4049,1 52840U 22062L   22244.25001157 -.00021375  00000-0 -13284-2 0  9996,2 52840  53.2208  44.6755 0001492  70.5561  83.6260 15.08853394 12220,6917.839,95.437,540.737,538.672,0.0
52840.0,STARLINK-4049,PAYLOAD,2022-09-01 14:00:01,15.08847012,0.0001494,53.2209,43.1799,69.8581,95.9873,-0.0016390999999999,-0.00026284,0.0,0 STARLINK-4049,1 52840U 22062L   22244.58335648 -.00026284  00000-0 -16391-2 0  9993,2 52840  53.2209  43.1799 0001494  69.8581  95.9873 15.08847012  1301,6917.859,95.437,540.757,538.69,0.0
52840.0,STARLINK-4049,PAYLOAD,2022-09-01 22:00:00,15.08815742,0.0001551,53.2205,41.6848,61.7702,115.6077,0.0026680999999999,0.00042402,0.0,0 STARLINK-4049,1 52840U 22062L   22244.91667824  .00042402  00000-0  26681-2 0  9995,2 52840  53.2205  41.6848 0001551  61.7702 115.6077 15.08815742  1306,6917.955,95.439,540.893,538.747,0.0
52840.0,STARLINK-4049,PAYLOAD,2022-09-02 06:00:00,15.08821658,0.0001413,53.2205,40.1869,69.6208,119.3482,0.0020976,0.00033236,0.0,0 STARLINK-4049,1 52840U 22062L   22245.25001157  .00033236  00000-0  20976-2 0  9990,2 52840  53.2205  40.1869 0001413  69.6208 119.3482 15.08821658 12371,6917.936,95.439,540.779,538.8240000000002,0.0
52840.0,STARLINK-4049,PAYLOAD,2022-09-02 14:00:01,15.088687699999998,0.0001462,53.2206,38.6916,68.9306,131.6193,-0.004389,-0.00069519,0.0,0 STARLINK-4049,1 52840U 22062L   22245.58334491 -.00069519  00000-0 -43890-2 0  9991,2 52840  53.2206  38.6916 0001462  68.9306 131.6193 15.08868770  1305,6917.792,95.436,540.669,538.646,0.0
52840.0,STARLINK-4049,PAYLOAD,2022-09-02 22:00:01,15.08804794,0.0001457,53.2203,37.1962,59.2852,152.9312,0.0022506999999999,0.00035679,0.0,0 STARLINK-4049,1 52840U 22062L   22245.91668981  .00035679  00000-0  22507-2 0  9992,2 52840  53.2203  37.1962 0001457  59.2852 152.9312 15.08804794  1305,6917.988,95.44,540.861,538.845,0.0
52840.0,STARLINK-4049,PAYLOAD,2022-09-03 00:00:00,15.08833253,0.0001424,53.2202,36.8217,60.0059,245.0325,-0.0010049,-0.00016242,0.0,0 STARLINK-4049,1 52840U 22062L   22246.00001157 -.00016242  00000-0 -10049-2 0  9994,2 52840  53.2202  36.8217 0001424  60.0059 245.0325 15.08833253 12487,6917.901,95.438,540.751,538.781,0.0
52840.0,STARLINK-4049,PAYLOAD,2022-09-03 14:00:01,15.08847238,0.000145,53.2205,34.203,65.46600000000001,169.8356,-0.0011439,-0.0001844999999999,0.0,0 STARLINK-4049,1 52840U 22062L   22246.58334491 -.00018450  00000-0 -11439-2 0  9994,2 52840  53.2205  34.2030 0001450  65.4660 169.8356 15.08847238  1305,6917.858,95.437,540.726,538.72,0.0
52840.0,STARLINK-4049,PAYLOAD,2022-09-03 22:00:00,15.08834353,0.0001496,53.2203,32.7076,57.745,189.1545,0.0021048,0.00033364,0.0,0 STARLINK-4049,1 52840U 22062L   22246.91667824  .00033364  00000-0  21048-2 0  9996,2 52840  53.2203  32.7076 0001496  57.7450 189.1545 15.08834353  1306,6917.898,95.438,540.798,538.7280000000002,0.0
52840.0,STARLINK-4049,PAYLOAD,2022-09-04 06:00:00,15.08831895,0.0001371,53.2206,31.2094,64.5833,193.9267,0.0031068,0.00049493,0.0,0 STARLINK-4049,1 52840U 22062L   22247.25001157  .00049493  00000-0  31068-2 0  9998,2 52840  53.2206  31.2094 0001371  64.5833 193.9267 15.08831895 12670,6917.905,95.438,540.719,538.822,0.0
52840.0,STARLINK-4049,PAYLOAD,2022-09-04 14:00:01,15.0888099,0.0001433,53.2207,29.7142,61.4855,208.6904,-0.0043467,-0.00068881,0.0,0 STARLINK-4049,1 52840U 22062L   22247.58335648 -.00068881  00000-0 -43467-2 0  9999,2 52840  53.2207  29.7142 0001433  61.4855 208.6904 15.08880990  1306,6917.755,95.435,540.611,538.629,0.0
52840.0,STARLINK-4049,PAYLOAD,2022-09-04 20:00:01,15.08784828,0.0001409,53.2209,28.5929,46.6023,142.2018,0.0041273999999999,0.00065914,0.0,0 STARLINK-4049,1 52840U 22062L   22247.83334491  .00065914  00000-0  41274-2 0  9998,2 52840  53.2209  28.5929 0001409  46.6023 142.2018 15.08784828 12767,6918.049,95.441,540.889,538.939,0.0
52840.0,STARLINK-4049,PAYLOAD,2022-09-05 06:00:00,15.08802144,0.0001247,53.2209,26.7206,54.8748,238.3888,0.0037989,0.00060629,0.0,0 STARLINK-4049,1 52840U 22062L   22248.25001157  .00060629  00000-0  37989-2 0  9991,2 52840  53.2209  26.7206 0001247  54.8748 238.3888 15.08802144 12821,6917.996,95.44,540.724,538.998,0.0
52840.0,STARLINK-4049,PAYLOAD,2022-09-05 14:00:01,15.08862035,0.00014,53.2211,25.2255,52.1479,252.6875,-0.0026683,-0.00042529,0.0,0 STARLINK-4049,1 52840U 22062L   22248.58334491 -.00042529  00000-0 -26683-2 0  9997,2 52840  53.2211  25.2255 0001400  52.1479 252.6875 15.08862035  1306,6917.813,95.436,540.6469999999998,538.71,0.0
52840.0,STARLINK-4049,PAYLOAD,2022-09-05 20:00:01,15.08811488,0.0001527,53.2212,24.1041,48.0299,175.5149,0.0022316,0.00035379,0.0,0 STARLINK-4049,1 52840U 22062L   22248.83334491  .00035379  00000-0  22316-2 0  9997,2 52840  53.2212  24.1041 0001527  48.0299 175.5149 15.08811488 12914,6917.968000000003,95.439,540.889,538.776,0.0
52840.0,STARLINK-4049,PAYLOAD,2022-09-05 22:00:00,15.08826976,0.0001511,53.2209,23.7296,48.4514,267.9831,0.00049038,7.522e-05,0.0,0 STARLINK-4049,1 52840U 22062L   22248.91667824  .00007522  00000-0  49038-3 0  9995,2 52840  53.2209  23.7296 0001511  48.4514 267.9831 15.08826976  1307,6917.92,95.438,540.83,538.74,0.0
52840.0,STARLINK-4049,PAYLOAD,2022-09-06 12:00:00,15.08865605,0.0001381,53.2216,21.1103,55.0391,191.6621,-0.0038417,-0.00060953,0.0,0 STARLINK-4049,1 52840U 22062L   22249.50001157 -.00060953  00000-0 -38417-2 0  9999,2 52840  53.2216  21.1103 0001381  55.0391 191.6621 15.08865605 13019,6917.802,95.436,540.622,538.712,0.0
52840.0,STARLINK-4049,PAYLOAD,2022-09-06 14:00:01,15.08855998,0.0001424,53.2215,20.7367,51.5799,288.0258,-0.003525,-0.00055977,0.0,0 STARLINK-4049,1 52840U 22062L   22249.58334491 -.00055977  00000-0 -35250-2 0  9999,2 52840  53.2215  20.7367 0001424  51.5799 288.0258 15.08855998  1306,6917.831,95.437,540.682,538.711,0.0
52840.0,STARLINK-4049,PAYLOAD,2022-09-06 22:00:00,15.08829655,0.0001426,53.2212,19.2406,44.9163,306.2754,0.0002904,4.336e-05,0.0,0 STARLINK-4049,1 52840U 22062L   22249.91667824  .00004336  00000-0  29040-3 0  9997,2 52840  53.2212  19.2406 0001426  44.9163 306.2754 15.08829655 13075,6917.9119999999975,95.438,540.764,538.7909999999998,0.0
